INTELSAT 9 (IS-9)       
1 26451U 00043A   25151.61416909 -.00000022  00000+0  00000+0 0  9998
2 26451   9.5482  52.6562 0004123  22.9659 101.0650  1.00272186 40315
INTELSAT 10 (IS-10)     
1 26766U 01019A   25151.61416984 -.00000015  00000+0  00000+0 0  9996
2 26766   8.1625  63.1478 0003855 351.4060 121.9765  1.00272448 41790
INTELSAT 902 (IS-902)   
1 26900U 01039A   25150.71846988 -.00000289  00000+0  00000+0 0  9992
2 26900   5.1503  76.4641 0004401 349.0958  31.4724  1.00270881 86864
INTELSAT 904 (IS-904)   
1 27380U 02007A   25151.15091288 -.00000221  00000+0  00000+0 0  9991
2 27380   5.9644  73.7646 0002766 354.3736 205.5745  1.00269626 47938
DIRECTV 5 (TEMPO 1)     
1 27426U 02023A   25151.42050708 -.00000062  00000+0  00000+0 0  9995
2 27426   3.9021  80.1021 0003246 358.2533 212.0602  1.00272124 84299
INTELSAT 905 (IS-905)   
1 27438U 02027A   25151.50543593  .00000089  00000+0  00000+0 0  9998
2 27438   5.7937  74.3988 0002551 341.0737 238.5193  1.00269944 47539
GALAXY 3C (G-3C)        
1 27445U 02030A   25151.42354789 -.00000158  00000+0  00000+0 0  9996
2 27445   2.7494  82.8109 0003121  45.2419 178.7323  1.00271356 42664
INTELSAT 906 (IS-906)   
1 27513U 02041A   25151.45508550  .00000007  00000+0  00000+0 0  9996
2 27513   4.8321  77.6426 0004077 353.5206  46.0068  1.00270868 83201
GALAXY 23 (G-23)        
1 27854U 03034A   25151.27556958  .00000010  00000+0  00000+0 0  9996
2 27854   2.2101  84.4491 0002210   4.8658 137.9286  1.00249608 79912
GALAXY 13 (HORIZONS-1)  
1 27954U 03044A   25151.52822365  .00000127  00000+0  00000+0 0  9993
2 27954   0.4317  89.9331 0002176 335.8644 223.6311  1.00271688 42744
INTELSAT 10-02          
1 28358U 04022A   25151.37071325 -.00000017  00000+0  00000+0 0  9993
2 28358   0.0282  61.1453 0000646 345.2093 335.2311  1.00269545 76724
XM-3 (RHYTHM)           
1 28626U 05008A   25151.42519862 -.00000204  00000+0  00000+0 0  9993
2 28626   0.0404 118.3060 0001974 149.0494  48.5373  1.00269366 38795
DIRECTV 8               
1 28659U 05019A   25151.27600399 -.00000004  00000+0  00000+0 0  9998
2 28659   0.0265  65.9170 0002757   3.1171 160.3019  1.00271507 73246
GALAXY 28 (G-28)        
1 28702U 05022A   25151.42476422 -.00000192  00000+0  00000+0 0  9994
2 28702   2.3152  83.7164 0001929  18.8285 210.8444  1.00270826 48153
GALAXY 16 (G-16)        
1 29236U 06023A   25151.42267909 -.00000132  00000+0  00000+0 0  9991
2 29236   0.0494 124.8619 0002687 310.4105 227.0518  1.00270481 69147
DIRECTV 9S              
1 29494U 06043A   25151.42224469 -.00000118  00000+0  00000+0 0  9997
2 29494   1.4361  85.6066 0002804 340.9945 233.3705  1.00271294 47554
GALAXY 17 (G-17)        
1 31307U 07016B   25151.42545927 -.00000211  00000+0  00000+0 0  9993
2 31307   2.0070  84.8041 0001987  44.3227 188.1889  1.00271666 65976
DIRECTV 10              
1 31862U 07032A   25151.42198405 -.00000108  00000+0  00000+0 0  9997
2 31862   0.0155 144.1185 0000389 133.0764  21.0787  1.00270147 41766
INTELSAT 11 (IS-11)     
1 32253U 07044B   25151.30064123 -.00000148  00000+0  00000+0 0  9995
2 32253   2.5717  83.4162 0002136  56.4806 222.7359  0.99049191 64668
HORIZONS-2              
1 32388U 07063B   25151.42771816 -.00000258  00000+0  00000+0 0  9994
2 32388   1.6178  85.4201 0001879 356.3362 247.5703  1.00269218 63985
DIRECTV 11              
1 32729U 08013A   25151.35129969 -.00000131  00000+0  00000+0 0  9997
2 32729   0.0123  85.4268 0000660 200.6115 350.3283  1.00269731 41762
GALAXY 18 (G-18)        
1 32951U 08024A   25151.40486973  .00000020  00000+0  00000+0 0  9999
2 32951   0.0125  25.0918 0002837  42.0539 204.7343  1.00269456 42022
INTELSAT 25 (IS-25)     
1 33153U 08034A   25151.42753046 -.00000229  00000+0  00000+0 0  9997
2 33153   1.7245  85.0806 0002903 352.4303 294.0800  1.00270934 61867
GALAXY 19 (G-19)        
1 33376U 08045A   25151.42311350 -.00000144  00000+0  00000+0 0  9990
2 33376   0.0404  90.1927 0002620 340.7593 233.5330  1.00270732 61076
FM-5                    
1 35493U 09034A   25151.30356389 -.00000205  00000+0  00000+0 0  9997
2 35493   0.0134 305.4371 0000555 358.7138 328.0334  1.00269260 42811
INTELSAT 14 (IS-14)     
1 36097U 09064A   25151.43308539 -.00000279  00000+0  00000+0 0  9990
2 36097   0.0202  40.2904 0002130  29.5735 290.2297  1.00271736 56770
INTELSAT 15 (IS-15)     
1 36106U 09067A   25151.60808722 -.00000191  00000+0  00000+0 0  9995
2 36106   0.0147 324.0296 0002041 112.7831 116.5938  1.00271338 37408
DIRECTV 12              
1 36131U 09075A   25151.42198405 -.00000108  00000+0  00000+0 0  9990
2 36131   0.0144  91.5073 0000388 330.5928 236.2387  1.00270413 42723
INTELSAT 16 (IS-16)     
1 36397U 10006A   25150.85608311 -.00000250  00000+0  00000+0 0  9996
2 36397   0.0371  70.2742 0002337  31.9521  18.3711  1.00271545 55825
XM-5                    
1 37185U 10053A   25150.70561159 -.00000029  00000+0  00000+0 0  9990
2 37185   0.0336 283.0687 0002375 277.8747 186.3302  1.00280399 53644
INTELSAT 17 (IS-17)     
1 37238U 10065B   25151.59639175 -.00000007  00000+0  00000+0 0  9990
2 37238   0.0101 305.6467 0002510 128.9922  95.4043  1.00271048 49426
INTELSAT 28 (IS-28)     
1 37392U 11016A   25151.42753046 -.00000230  00000+0  00000+0 0  9992
2 37392   0.8203  87.6630 0003895 340.6497 303.0572  1.00269920 49458
INTELSAT 18 (IS-18)     
1 37834U 11056A   25150.83549247  .00000047  00000+0  00000+0 0  9992
2 37834   0.0172 356.9423 0001754  79.8146 292.6078  1.00271156 49977
INTELSAT 22 (IS-22)     
1 38098U 12011A   25151.52800642 -.00000065  00000+0  00000+0 0  9994
2 38098   0.0031   2.0410 0002103  75.9995  73.4232  1.00272287  3363
INTELSAT 19 (IS-19)     
1 38356U 12030A   25151.54666008 -.00000062  00000+0  00000+0 0  9997
2 38356   0.0260  60.0410 0002819   9.9319 182.1080  1.00271216 46625
INTELSAT 20 (IS-20)     
1 38740U 12043A   25151.52731139 -.00000030  00000+0  00000+0 0  9999
2 38740   0.0095  95.3622 0001583  90.5555 321.6879  1.00270998 46924
INTELSAT 21 (IS-21)     
1 38749U 12045A   25151.43864309 -.00000290  00000+0  00000+0 0  9994
2 38749   0.0157   0.2712 0001636  71.4382 277.3864  1.00271958 46694
INTELSAT 23 (IS-23)     
1 38867U 12057A   25150.78928351 -.00000290  00000+0  00000+0 0  9993
2 38867   0.0519 119.5342 0001058  70.5152 289.6475  1.00275653 46121
FM-6                    
1 39360U 13058A   25150.56267375 -.00000022  00000+0  00000+0 0  9995
2 39360   0.0039 356.3814 0001604 145.9623 192.3929  1.00272125 42221
INTELSAT 30 (IS-30)     
1 40271U 14062A   25151.42346102 -.00000155  00000+0  00000+0 0  9993
2 40271   0.0185  27.3374 0000751 335.6913 303.5175  1.00267034  2952
DIRECTV 14              
1 40333U 14078B   25151.42267909 -.00000130  00000+0  00000+0 0  9999
2 40333   0.0180 322.0908 0000390 230.7609 109.2518  1.00269908 38212
DIRECTV 15              
1 40663U 15026A   25151.42189716 -.00000108  00000+0  00000+0 0  9993
2 40663   0.0179 317.6530 0000755 221.4830 119.0378  1.00271252 36637
SKY MEXICO-1            
1 40664U 15026B   25151.42667559 -.00000240  00000+0  00000+0 0  9997
2 40664   0.0119 338.3650 0001819  87.8496 257.7944  1.00271187 36624
INTELSAT 34 (IS-34)     
1 40874U 15039A   25150.24954182 -.00000290  00000+0  00000+0 0  9999
2 40874   0.0175 322.6443 0000940 352.1280 327.5681  1.00271228 35773
INTELSAT 31 (IS-31)     
1 41581U 16035A   25150.42405970 -.00000155  00000+0  00000+0 0  9998
2 41581   0.0126 323.0701 0002360 276.4927  66.2116  1.00269549 32849
INTELSAT 36 (IS-36)     
1 41747U 16053A   25150.52787878 -.00000030  00000+0  00000+0 0  9995
2 41747   0.0134   6.4715 0001549 309.5980 190.7410  1.00272808 32116
INTELSAT 32E (IS-32E)   
1 41945U 17007B   25150.29154678 -.00000274  00000+0  00000+0 0  9995
2 41945   0.0209  55.0940 0000783 265.5064 349.2208  1.00271462 30380
INTELSAT 35E (IS-35E)   
1 42818U 17041A   25151.50322343 -.00000243  00000+0  00000+0 0  9990
2 42818   0.0192 313.4317 0001756 110.1466 332.3380  1.00272586 28987
INTELSAT 37E (IS-37E)   
1 42950U 17059A   25151.43875198 -.00000146  00000+0  00000+0 0  9991
2 42950   0.0152   5.0859 0002104  75.7844 308.2618  1.00271535 28236
AZERSPACE 2 (IS-38)     
1 43632U 18074A   25150.99836689  .00000131  00000+0  00000+0 0  9992
2 43632   0.0178 326.9601 0001295  93.7782 232.5253  1.00270872 24618
HORIZONS-3E             
1 43633U 18074B   25150.69058127 -.00000036  00000+0  00000+0 0  9998
2 43633   0.0497 155.0431 0000733 141.3171   9.6850  1.00270734 24504
AT&T T-16               
1 44333U 19034A   25150.42284337 -.00000120  00000+0  00000+0 0  9992
2 44333   0.0373  83.1734 0000501 210.2146   6.1502  1.00270430 21790
INTELSAT 39 (IS-39)     
1 44476U 19049B   25151.59956065  .00000028  00000+0  00000+0 0  9995
2 44476   0.0168 323.6376 0000955 346.8329 216.6501  1.00270903 21305
GALAXY 30 (G-30)        
1 46114U 20056C   25151.41755315  .00000032  00000+0  00000+0 0  9997
2 46114   0.0177 337.1652 0001985  90.4114 206.8780  1.00270962 17468
GALAXY 33 (G-33)        
1 54026U 22128A   25151.55870448  .00000074  00000+0  00000+0 0  9996
2 54026   0.0142 328.7039 0001663  93.5306 255.1994  1.00271227  9916
GALAXY 34 (G-34)        
1 54027U 22128B   25150.15636475  .00000054  00000+0  00000+0 0  9990
2 54027   0.0182 358.4121 0001205  75.8406 100.9544  1.00270308 10075
GALAXY 31 (G-31)        
1 54243U 22153A   25151.41833507  .00000008  00000+0  00000+0 0  9992
2 54243   0.0108 329.9044 0000559  36.8709 271.9804  1.00271685  3309
GALAXY 32 (G-32)        
1 54244U 22153B   25151.42424294 -.00000179  00000+0  00000+0 0  9993
2 54244   0.0178  31.9096 0002202 356.4265 282.5548  1.00271540  9319
GALAXY 35 (G-35)        
1 54741U 22170A   25151.40615297 -.00000167  00000+0  00000+0 0  9994
2 54741   0.0191 296.0835 0001819 132.3790 233.7916  1.00271221  9063
GALAXY 36 (G-36)        
1 54742U 22170B   25151.42467734 -.00000190  00000+0  00000+0 0  9994
2 54742   0.0293  97.8900 0002630 345.1577 230.0024  1.00271252  8946
GALAXY 37 (G-37)        
1 57493U 23112A   25151.49419752  .00000043  00000+0  00000+0 0  9997
2 57493   0.0242  47.8064 0001797  13.9676 238.3686  1.00271192  6716
